start=new Date('2022-03-17T00:00:00.000Z').valueOf();
sats=[{"OBJECT_ID":"2020-088H","ARG_OF_PERICENTER":"59.3000","ECCENTRICITY":"0.00015750","TIME_SYSTEM":"UTC","MEAN_MOTION_DOT":"-0.00010025","SEMIMAJOR_AXIS":"6925.486","MEAN_MOTION":"15.06355011","CLASSIFICATION_TYPE":"U","TLE_LINE1":"1 47129U 20088H   22075.43558822 -.00010025  00000-0 -65587-3 0  9998","REF_FRAME":"TEME","MEAN_ELEMENT_THEORY":"SGP4","MEAN_MOTION_DDOT":"0.0000000000000","PERIAPSIS":"546.261","EPOCH":"2022-03-16T10:27:14.822208","OBJECT_TYPE":"PAYLOAD","OBJECT_NAME":"STARLINK-1838","COUNTRY_CODE":"US","TLE_LINE2":"2 47129  53.0558 340.0174 0001575  59.3000 300.8144 15.06355011 72797","SITE":"AFETR","RA_OF_ASC_NODE":"340.0174","NORAD_CAT_ID":"47129","INCLINATION":"53.0558","MEAN_ANOMALY":"300.8144","PERIOD":"95.595","LAUNCH_DATE":"2020-11-25","DECAY_DATE":null,"REV_AT_EPOCH":"7279","RCS_SIZE":"LARGE","CENTER_NAME":"EARTH","ELEMENT_SET_NO":"999","EPHEMERIS_TYPE":"0","APOAPSIS":"548.442","GP_ID":"198888602","BSTAR":"-0.00065587000000","FILE":"3361689"},{"OBJECT_ID":"2020-088J","ARG_OF_PERICENTER":"43.3656","TIME_SYSTEM":"UTC","ECCENTRICITY":"0.00020790","MEAN_MOTION_DOT":"-0.00004402","SEMIMAJOR_AXIS":"6925.488","MEAN_MOTION":"15.06354663","CLASSIFICATION_TYPE":"U","TLE_LINE1":"1 47130U 20088J   22075.48535063 -.00004402  00000-0 -27715-3 0  9990","REF_FRAME":"TEME","MEAN_ELEMENT_THEORY":"SGP4","MEAN_MOTION_DDOT":"0.0000000000000","PERIAPSIS":"545.913","EPOCH":"2022-03-16T11:38:54.294432","OBJECT_NAME":"STARLINK-1839","OBJECT_TYPE":"PAYLOAD","COUNTRY_CODE":"US","TLE_LINE2":"2 47130  53.0563 359.7849 0002079  43.3656 316.7497 15.06354663 72813","SITE":"AFETR","RA_OF_ASC_NODE":"359.7849","INCLINATION":"53.0563","NORAD_CAT_ID":"47130","MEAN_ANOMALY":"316.7497","LAUNCH_DATE":"2020-11-25","PERIOD":"95.595","DECAY_DATE":null,"REV_AT_EPOCH":"7281","RCS_SIZE":"LARGE","CENTER_NAME":"EARTH","ELEMENT_SET_NO":"999","EPHEMERIS_TYPE":"0","APOAPSIS":"548.792","GP_ID":"198862379","BSTAR":"-0.00027715000000","FILE":"3361451"},{"ELEMENT_SET_NO":"999","EPHEMERIS_TYPE":"0","APOAPSIS":"548.389","GP_ID":"198889603","FILE":"3361689","BSTAR":"-0.00012493000000","CENTER_NAME":"EARTH","REV_AT_EPOCH":"7278","RCS_SIZE":"LARGE","SITE":"AFETR","RA_OF_ASC_NODE":"340.0518","INCLINATION":"53.0527","NORAD_CAT_ID":"47133","MEAN_ANOMALY":"290.8595","PERIOD":"95.595","LAUNCH_DATE":"2020-11-25","DECAY_DATE":null,"OBJECT_NAME":"STARLINK-1843","OBJECT_TYPE":"PAYLOAD","COUNTRY_CODE":"US","TLE_LINE2":"2 47133  53.0527 340.0518 0001513  69.2556 290.8595 15.06358424 72786","MEAN_MOTION":"15.06358424","CLASSIFICATION_TYPE":"U","TLE_LINE1":"1 47133U 20088M   22075.42821811 -.00002140  00000-0 -12493-3 0  9990","REF_FRAME":"TEME","MEAN_ELEMENT_THEORY":"SGP4","MEAN_MOTION_DDOT":"0.0000000000000","PERIAPSIS":"546.293","EPOCH":"2022-03-16T10:16:38.044704","ARG_OF_PERICENTER":"69.2556","TIME_SYSTEM":"UTC","ECCENTRICITY":"0.00015130","MEAN_MOTION_DOT":"-0.00002140","SEMIMAJOR_AXIS":"6925.476","OBJECT_ID":"2020-088M"},{"OBJECT_ID":"2020-088N","SEMIMAJOR_AXIS":"6925.525","TIME_SYSTEM":"UTC","ARG_OF_PERICENTER":"56.9452","ECCENTRICITY":"0.00016560","MEAN_MOTION_DOT":"-0.00023158","PERIAPSIS":"546.243","EPOCH":"2022-03-16T06:27:02.664576","MEAN_MOTION_DDOT":"0.0000000000000","MEAN_ELEMENT_THEORY":"SGP4","CLASSIFICATION_TYPE":"U","TLE_LINE1":"1 47134U 20088N   22075.26878084 -.00023158  00000-0 -15432-2 0  9994","REF_FRAME":"TEME","MEAN_MOTION":"15.06342399","COUNTRY_CODE":"US","TLE_LINE2":"2 47134  53.0555 350.7684 0001656  56.9452 303.1696 15.06342399 72623","OBJECT_TYPE":"PAYLOAD","OBJECT_NAME":"STARLINK-1844","DECAY_DATE":null,"MEAN_ANOMALY":"303.1696","PERIOD":"95.596","LAUNCH_DATE":"2020-11-25","NORAD_CAT_ID":"47134","INCLINATION":"53.0555","SITE":"AFETR","RA_OF_ASC_NODE":"350.7684","RCS_SIZE":"LARGE","REV_AT_EPOCH":"7262","CENTER_NAME":"EARTH","GP_ID":"198887853","FILE":"3361689","BSTAR":"-0.00154320000000","APOAPSIS":"548.537","EPHEMERIS_TYPE":"0","ELEMENT_SET_NO":"999"},{"SEMIMAJOR_AXIS":"6925.431","MEAN_MOTION_DOT":"-0.00000088","ARG_OF_PERICENTER":"59.7349","TIME_SYSTEM":"UTC","ECCENTRICITY":"0.00015980","OBJECT_ID":"2020-088P","OBJECT_NAME":"STARLINK-1845","OBJECT_TYPE":"PAYLOAD","TLE_LINE2":"2 47135  53.0551 340.0998 0001598  59.7349 300.3798 15.06373050 72788","COUNTRY_CODE":"US","MEAN_MOTION_DDOT":"0.0000000000000","MEAN_ELEMENT_THEORY":"SGP4","EPOCH":"2022-03-16T10:06:00.283968","PERIAPSIS":"546.189","MEAN_MOTION":"15.06373050","REF_FRAME":"TEME","CLASSIFICATION_TYPE":"U","TLE_LINE1":"1 47135U 20088P   22075.42083662 -.00000088  00000-0  13021-4 0  9993","RCS_SIZE":"LARGE","REV_AT_EPOCH":"7278","PERIOD":"95.594","LAUNCH_DATE":"2020-11-25","MEAN_ANOMALY":"300.3798","DECAY_DATE":null,"RA_OF_ASC_NODE":"340.0998","SITE":"AFETR","INCLINATION":"53.0551","NORAD_CAT_ID":"47135","APOAPSIS":"548.403","FILE":"3361689","BSTAR":"0.00001302100000","GP_ID":"198888103","EPHEMERIS_TYPE":"0","ELEMENT_SET_NO":"999","CENTER_NAME":"EARTH"},{"SEMIMAJOR_AXIS":"6925.612","MEAN_MOTION_DOT":"-0.00001576","ARG_OF_PERICENTER":"73.5368","TIME_SYSTEM":"UTC","ECCENTRICITY":"0.00014890","OBJECT_ID":"2020-088Q","OBJECT_TYPE":"PAYLOAD","OBJECT_NAME":"STARLINK-1846","TLE_LINE2":"2 47136  53.0565 349.7988 0001489  73.5368 286.5785 15.06313941 72653","COUNTRY_CODE":"US","MEAN_ELEMENT_THEORY":"SGP4","MEAN_MOTION_DDOT":"0.0000000000000","EPOCH":"2022-03-16T11:40:12.462240","PERIAPSIS":"546.446","MEAN_MOTION":"15.06313941","REF_FRAME":"TEME","TLE_LINE1":"1 47136U 20088Q   22075.48625535 -.00001576  00000-0 -87111-4 0  9996","CLASSIFICATION_TYPE":"U","RCS_SIZE":"LARGE","REV_AT_EPOCH":"7265","LAUNCH_DATE":"2020-11-25","PERIOD":"95.598","MEAN_ANOMALY":"286.5785","DECAY_DATE":null,"RA_OF_ASC_NODE":"349.7988","SITE":"AFETR","NORAD_CAT_ID":"47136","INCLINATION":"53.0565","APOAPSIS":"548.509","BSTAR":"-0.00008711100000","FILE":"3361689","GP_ID":"198889354","EPHEMERIS_TYPE":"0","ELEMENT_SET_NO":"999","CENTER_NAME":"EARTH"},{"SEMIMAJOR_AXIS":"6925.817","TIME_SYSTEM":"UTC","ARG_OF_PERICENTER":"61.2888","ECCENTRICITY":"0.00017160","MEAN_MOTION_DOT":"0.00011360","OBJECT_ID":"2020-088R","COUNTRY_CODE":"US","TLE_LINE2":"2 47137  53.0553 339.8697 0001716  61.2888 298.8273 15.06247276 72792","OBJECT_TYPE":"PAYLOAD","OBJECT_NAME":"STARLINK-1849","PERIAPSIS":"546.493","EPOCH":"2022-03-16T11:15:03.048192","MEAN_MOTION_DDOT":"0.0000000000000","MEAN_ELEMENT_THEORY":"SGP4","TLE_LINE1":"1 47137U 20088R   22075.46878528  .00011360  00000-0  78352-3 0  9993","CLASSIFICATION_TYPE":"U","REF_FRAME":"TEME","MEAN_MOTION":"15.06247276","RCS_SIZE":"LARGE","REV_AT_EPOCH":"7279","DECAY_DATE":null,"MEAN_ANOMALY":"298.8273","LAUNCH_DATE":"2020-11-25","PERIOD":"95.602","NORAD_CAT_ID":"47137","INCLINATION":"53.0553","SITE":"AFETR","RA_OF_ASC_NODE":"339.8697","GP_ID":"198889104","BSTAR":"0.00078352000000","FILE":"3361689","APOAPSIS":"548.870","ELEMENT_SET_NO":"999","EPHEMERIS_TYPE":"0","CENTER_NAME":"EARTH"},{"DECAY_DATE":null,"MEAN_ANOMALY":"305.7527","PERIOD":"95.594","LAUNCH_DATE":"2020-11-25","NORAD_CAT_ID":"47138","INCLINATION":"53.0577","SITE":"AFETR","RA_OF_ASC_NODE":"345.0192","RCS_SIZE":"LARGE","REV_AT_EPOCH":"7272","CENTER_NAME":"EARTH","GP_ID":"198888353","FILE":"3361689","BSTAR":"-0.00032623000000","APOAPSIS":"548.497","EPHEMERIS_TYPE":"0","ELEMENT_SET_NO":"999","OBJECT_ID":"2020-088S","SEMIMAJOR_AXIS":"6925.446","ECCENTRICITY":"0.00017120","ARG_OF_PERICENTER":"54.3621","TIME_SYSTEM":"UTC","MEAN_MOTION_DOT":"-0.00005133","PERIAPSIS":"546.126","EPOCH":"2022-03-16T10:27:52.545312","MEAN_ELEMENT_THEORY":"SGP4","MEAN_MOTION_DDOT":"0.0000000000000","TLE_LINE1":"1 47138U 20088S   22075.43602483 -.00005133  00000-0 -32623-3 0  9990","CLASSIFICATION_TYPE":"U","REF_FRAME":"TEME","MEAN_MOTION":"15.06368105","COUNTRY_CODE":"US","TLE_LINE2":"2 47138  53.0577 345.0192 0001712  54.3621 305.7527 15.06368105 72720","OBJECT_NAME":"STARLINK-1850","OBJECT_TYPE":"PAYLOAD"},{"CENTER_NAME":"EARTH","APOAPSIS":"548.593","GP_ID":"198888603","BSTAR":"-0.00063616000000","FILE":"3361689","ELEMENT_SET_NO":"999","EPHEMERIS_TYPE":"0","MEAN_ANOMALY":"283.3398","LAUNCH_DATE":"2020-11-25","PERIOD":"95.595","DECAY_DATE":null,"SITE":"AFETR","RA_OF_ASC_NODE":"355.6436","NORAD_CAT_ID":"47139","INCLINATION":"53.0569","RCS_SIZE":"LARGE","REV_AT_EPOCH":"7255","MEAN_MOTION_DDOT":"0.0000000000000","MEAN_ELEMENT_THEORY":"SGP4","PERIAPSIS":"546.117","EPOCH":"2022-03-16T07:10:08.372928","MEAN_MOTION":"15.06353861","TLE_LINE1":"1 47139U 20088T   22075.29870802 -.00009733  00000-0 -63616-3 0  9993","CLASSIFICATION_TYPE":"U","REF_FRAME":"TEME","OBJECT_TYPE":"PAYLOAD","OBJECT_NAME":"STARLINK-1852","COUNTRY_CODE":"US","TLE_LINE2":"2 47139  53.0569 355.6436 0001787  76.7790 283.3398 15.06353861 72558","OBJECT_ID":"2020-088T","SEMIMAJOR_AXIS":"6925.490","ECCENTRICITY":"0.00017870","ARG_OF_PERICENTER":"76.7790","TIME_SYSTEM":"UTC","MEAN_MOTION_DOT":"-0.00009733"},{"CENTER_NAME":"EARTH","ELEMENT_SET_NO":"999","EPHEMERIS_TYPE":"0","GP_ID":"198888855","BSTAR":"-0.00062222000000","FILE":"3361689","APOAPSIS":"548.620","NORAD_CAT_ID":"47141","INCLINATION":"53.0557","SITE":"AFETR","RA_OF_ASC_NODE":"339.9936","DECAY_DATE":null,"MEAN_ANOMALY":"282.9223","LAUNCH_DATE":"2020-11-25","PERIOD":"95.595","REV_AT_EPOCH":"7279","RCS_SIZE":"LARGE","TLE_LINE1":"1 47141U 20088V   22075.44295416 -.00009526  00000-0 -62222-3 0  9997","CLASSIFICATION_TYPE":"U","REF_FRAME":"TEME","MEAN_MOTION":"15.06354493","PERIAPSIS":"546.086","EPOCH":"2022-03-16T10:37:51.239424","MEAN_ELEMENT_THEORY":"SGP4","MEAN_MOTION_DDOT":"0.0000000000000","COUNTRY_CODE":"US","TLE_LINE2":"2 47141  53.0557 339.9936 0001830  77.1971 282.9223 15.06354493 72793","OBJECT_TYPE":"PAYLOAD","OBJECT_NAME":"STARLINK-1854","OBJECT_ID":"2020-088V","ARG_OF_PERICENTER":"77.1971","ECCENTRICITY":"0.00018300","TIME_SYSTEM":"UTC","MEAN_MOTION_DOT":"-0.00009526","SEMIMAJOR_AXIS":"6925.488"}];
